start=new Date('2022-07-13T00:00:00.000Z').valueOf();
sats=[{"TIME_SYSTEM":"UTC","BSTAR":"0.00009085300000","RCS_SIZE":"LARGE","NORAD_CAT_ID":"48129","OBJECT_ID":"2021-027AP","LAUNCH_DATE":"2021-04-07","CLASSIFICATION_TYPE":"U","SEMIMAJOR_AXIS":"6925.325","TLE_LINE2":"2 48129  53.0555  48.4937 0001604  75.3257 284.7909 15.06407584 71078","MEAN_MOTION_DOT":"0.00001072","ECCENTRICITY":"0.00016040","RA_OF_ASC_NODE":"48.4937","REF_FRAME":"TEME","MEAN_MOTION_DDOT":"0.0000000000000","COUNTRY_CODE":"US","MEAN_ANOMALY":"284.7909","PERIOD":"95.592","SITE":"AFETR","ARG_OF_PERICENTER":"75.3257","MEAN_ELEMENT_THEORY":"SGP4","OBJECT_NAME":"STARLINK-2471","FILE":"3512432","ELEMENT_SET_NO":"999","MEAN_MOTION":"15.06407584","PERIAPSIS":"546.079","EPOCH":"2022-07-12T20:08:09.149856","EPHEMERIS_TYPE":"0","TLE_LINE1":"1 48129U 21027AP  22193.83899479  .00001072  00000-0  90853-4 0  9999","OBJECT_TYPE":"PAYLOAD","CENTER_NAME":"EARTH","INCLINATION":"53.0555","GP_ID":"207997706","DECAY_DATE":null,"REV_AT_EPOCH":"7107","APOAPSIS":"548.301"},{"GP_ID":"207997956","REV_AT_EPOCH":"7100","DECAY_DATE":null,"APOAPSIS":"548.092","CENTER_NAME":"EARTH","INCLINATION":"53.0555","ELEMENT_SET_NO":"999","MEAN_MOTION":"15.06410627","PERIAPSIS":"546.270","OBJECT_TYPE":"PAYLOAD","TLE_LINE1":"1 48130U 21027AQ  22193.82837127  .00003518  00000-0  25491-3 0  9994","EPHEMERIS_TYPE":"0","EPOCH":"2022-07-12T19:52:51.277728","FILE":"3512432","OBJECT_NAME":"STARLINK-2472","MEAN_ELEMENT_THEORY":"SGP4","MEAN_MOTION_DDOT":"0.0000000000000","REF_FRAME":"TEME","MEAN_ANOMALY":"284.9491","COUNTRY_CODE":"US","ARG_OF_PERICENTER":"75.1644","SITE":"AFETR","PERIOD":"95.591","LAUNCH_DATE":"2021-04-07","TLE_LINE2":"2 48130  53.0555  53.5393 0001316  75.1644 284.9491 15.06410627 71004","SEMIMAJOR_AXIS":"6925.316","CLASSIFICATION_TYPE":"U","ECCENTRICITY":"0.00013160","MEAN_MOTION_DOT":"0.00003518","RA_OF_ASC_NODE":"53.5393","OBJECT_ID":"2021-027AQ","NORAD_CAT_ID":"48130","TIME_SYSTEM":"UTC","BSTAR":"0.00025491000000","RCS_SIZE":"LARGE"},{"LAUNCH_DATE":"2021-04-07","TLE_LINE2":"2 48131  53.0540  28.7354 0001446  76.8232 283.2918 15.06419480 71344","SEMIMAJOR_AXIS":"6925.289","CLASSIFICATION_TYPE":"U","ECCENTRICITY":"0.00014460","MEAN_MOTION_DOT":"0.00005470","RA_OF_ASC_NODE":"28.7354","REF_FRAME":"TEME","MEAN_MOTION_DDOT":"0.0000000000000","MEAN_ANOMALY":"283.2918","COUNTRY_CODE":"US","ARG_OF_PERICENTER":"76.8232","SITE":"AFETR","PERIOD":"95.591","TIME_SYSTEM":"UTC","BSTAR":"0.00038564000000","RCS_SIZE":"LARGE","OBJECT_ID":"2021-027AR","NORAD_CAT_ID":"48131","CENTER_NAME":"EARTH","INCLINATION":"53.0540","GP_ID":"207998707","REV_AT_EPOCH":"7134","DECAY_DATE":null,"APOAPSIS":"548.155","OBJECT_NAME":"STARLINK-2473","FILE":"3512432","MEAN_ELEMENT_THEORY":"SGP4","ELEMENT_SET_NO":"999","MEAN_MOTION":"15.06419480","PERIAPSIS":"546.152","EPHEMERIS_TYPE":"0","TLE_LINE1":"1 48131U 21027AR  22193.78186343  .00005470  00000-0  38564-3 0  9991","OBJECT_TYPE":"PAYLOAD","EPOCH":"2022-07-12T18:45:53.000352"},{"APOAPSIS":"548.182","DECAY_DATE":null,"REV_AT_EPOCH":"7106","GP_ID":"207998941","CENTER_NAME":"EARTH","INCLINATION":"53.0556","EPOCH":"2022-07-12T19:52:14.473056","TLE_LINE1":"1 48132U 21027AS  22193.82794529  .00006134  00000-0  43018-3 0  9996","OBJECT_TYPE":"PAYLOAD","EPHEMERIS_TYPE":"0","PERIAPSIS":"546.148","MEAN_MOTION":"15.06415817","ELEMENT_SET_NO":"999","MEAN_ELEMENT_THEORY":"SGP4","FILE":"3512432","OBJECT_NAME":"STARLINK-2474","PERIOD":"95.591","SITE":"AFETR","ARG_OF_PERICENTER":"84.7055","COUNTRY_CODE":"US","MEAN_ANOMALY":"275.4102","MEAN_MOTION_DDOT":"0.0000000000000","REF_FRAME":"TEME","RA_OF_ASC_NODE":"48.5482","MEAN_MOTION_DOT":"0.00006134","ECCENTRICITY":"0.00014680","SEMIMAJOR_AXIS":"6925.300","CLASSIFICATION_TYPE":"U","TLE_LINE2":"2 48132  53.0556  48.5482 0001468  84.7055 275.4102 15.06415817 71066","LAUNCH_DATE":"2021-04-07","NORAD_CAT_ID":"48132","OBJECT_ID":"2021-027AS","RCS_SIZE":"LARGE","BSTAR":"0.00043018000000","TIME_SYSTEM":"UTC"},{"NORAD_CAT_ID":"48133","OBJECT_ID":"2021-027AT","RCS_SIZE":"LARGE","TIME_SYSTEM":"UTC","BSTAR":"0.00031433000000","COUNTRY_CODE":"US","MEAN_ANOMALY":"281.7950","PERIOD":"95.591","SITE":"AFETR","ARG_OF_PERICENTER":"78.3206","MEAN_MOTION_DDOT":"0.0000000000000","REF_FRAME":"TEME","MEAN_MOTION_DOT":"0.00004405","ECCENTRICITY":"0.00014930","RA_OF_ASC_NODE":"48.5644","LAUNCH_DATE":"2021-04-07","CLASSIFICATION_TYPE":"U","SEMIMAJOR_AXIS":"6925.314","TLE_LINE2":"2 48133  53.0548  48.5644 0001493  78.3206 281.7950 15.06411237 71077","PERIAPSIS":"546.145","EPOCH":"2022-07-12T19:46:55.399584","TLE_LINE1":"1 48133U 21027AT  22193.82425231  .00004405  00000-0  31433-3 0  9995","EPHEMERIS_TYPE":"0","OBJECT_TYPE":"PAYLOAD","ELEMENT_SET_NO":"999","MEAN_MOTION":"15.06411237","MEAN_ELEMENT_THEORY":"SGP4","FILE":"3512432","OBJECT_NAME":"STARLINK-2475","DECAY_DATE":null,"REV_AT_EPOCH":"7107","APOAPSIS":"548.213","GP_ID":"207998205","INCLINATION":"53.0548","CENTER_NAME":"EARTH"},{"LAUNCH_DATE":"2021-04-07","TLE_LINE2":"2 48134  53.0559  47.7320 0001358  80.0932 280.0210 15.06396692 70705","SEMIMAJOR_AXIS":"6925.359","CLASSIFICATION_TYPE":"U","ECCENTRICITY":"0.00013580","MEAN_MOTION_DOT":"0.00002595","RA_OF_ASC_NODE":"47.7320","REF_FRAME":"TEME","MEAN_MOTION_DDOT":"0.0000000000000","MEAN_ANOMALY":"280.0210","COUNTRY_CODE":"US","SITE":"AFETR","ARG_OF_PERICENTER":"80.0932","PERIOD":"95.592","TIME_SYSTEM":"UTC","BSTAR":"0.00019306000000","RCS_SIZE":"LARGE","OBJECT_ID":"2021-027AU","NORAD_CAT_ID":"48134","INCLINATION":"53.0559","CENTER_NAME":"EARTH","GP_ID":"208004895","REV_AT_EPOCH":"7070","DECAY_DATE":null,"APOAPSIS":"548.164","OBJECT_NAME":"STARLINK-2476","FILE":"3512551","MEAN_ELEMENT_THEORY":"SGP4","ELEMENT_SET_NO":"999","MEAN_MOTION":"15.06396692","PERIAPSIS":"546.283","OBJECT_TYPE":"PAYLOAD","TLE_LINE1":"1 48134U 21027AU  22194.00855286  .00002595  00000-0  19306-3 0  9997","EPHEMERIS_TYPE":"0","EPOCH":"2022-07-13T00:12:18.967104"},{"GP_ID":"207999207","APOAPSIS":"548.053","REV_AT_EPOCH":"7100","DECAY_DATE":null,"CENTER_NAME":"EARTH","INCLINATION":"53.0539","MEAN_MOTION":"15.06413902","ELEMENT_SET_NO":"999","TLE_LINE1":"1 48135U 21027AV  22193.87726128  .00005513  00000-0  38855-3 0  9997","OBJECT_TYPE":"PAYLOAD","EPHEMERIS_TYPE":"0","EPOCH":"2022-07-12T21:03:15.374592","PERIAPSIS":"546.289","FILE":"3512432","OBJECT_NAME":"STARLINK-2478","MEAN_ELEMENT_THEORY":"SGP4","MEAN_MOTION_DDOT":"0.0000000000000","REF_FRAME":"TEME","ARG_OF_PERICENTER":"99.6688","SITE":"AFETR","PERIOD":"95.591","MEAN_ANOMALY":"260.4445","COUNTRY_CODE":"US","TLE_LINE2":"2 48135  53.0539  53.4779 0001274  99.6688 260.4445 15.06413902 71007","SEMIMAJOR_AXIS":"6925.306","CLASSIFICATION_TYPE":"U","LAUNCH_DATE":"2021-04-07","RA_OF_ASC_NODE":"53.4779","ECCENTRICITY":"0.00012740","MEAN_MOTION_DOT":"0.00005513","OBJECT_ID":"2021-027AV","NORAD_CAT_ID":"48135","BSTAR":"0.00038855000000","TIME_SYSTEM":"UTC","RCS_SIZE":"LARGE"},{"CENTER_NAME":"EARTH","INCLINATION":"53.0552","APOAPSIS":"548.063","DECAY_DATE":null,"REV_AT_EPOCH":"7107","GP_ID":"207999441","MEAN_ELEMENT_THEORY":"SGP4","OBJECT_NAME":"STARLINK-2479","FILE":"3512432","EPOCH":"2022-07-12T20:01:28.700544","TLE_LINE1":"1 48136U 21027AW  22193.83435996  .00003544  00000-0  25656-3 0  9991","OBJECT_TYPE":"PAYLOAD","EPHEMERIS_TYPE":"0","PERIAPSIS":"546.234","MEAN_MOTION":"15.06421221","ELEMENT_SET_NO":"999","RA_OF_ASC_NODE":"48.4951","MEAN_MOTION_DOT":"0.00003544","ECCENTRICITY":"0.00013200","SEMIMAJOR_AXIS":"6925.284","CLASSIFICATION_TYPE":"U","TLE_LINE2":"2 48136  53.0552  48.4951 0001320  66.8497 293.2630 15.06421221 71075","LAUNCH_DATE":"2021-04-07","PERIOD":"95.591","SITE":"AFETR","ARG_OF_PERICENTER":"66.8497","COUNTRY_CODE":"US","MEAN_ANOMALY":"293.2630","MEAN_MOTION_DDOT":"0.0000000000000","REF_FRAME":"TEME","RCS_SIZE":"LARGE","BSTAR":"0.00025656000000","TIME_SYSTEM":"UTC","NORAD_CAT_ID":"48136","OBJECT_ID":"2021-027AW"},{"GP_ID":"207997707","DECAY_DATE":null,"REV_AT_EPOCH":"7135","APOAPSIS":"548.099","INCLINATION":"53.0554","CENTER_NAME":"EARTH","ELEMENT_SET_NO":"999","MEAN_MOTION":"15.06416513","PERIAPSIS":"546.227","EPOCH":"2022-07-12T20:37:19.596576","OBJECT_TYPE":"PAYLOAD","TLE_LINE1":"1 48137U 21027AX  22193.85925459  .00004040  00000-0  28982-3 0  9999","EPHEMERIS_TYPE":"0","MEAN_ELEMENT_THEORY":"SGP4","FILE":"3512432","OBJECT_NAME":"STARLINK-2480","MEAN_MOTION_DDOT":"0.0000000000000","REF_FRAME":"TEME","COUNTRY_CODE":"US","MEAN_ANOMALY":"254.8686","PERIOD":"95.591","ARG_OF_PERICENTER":"105.2453","SITE":"AFETR","LAUNCH_DATE":"2021-04-07","SEMIMAJOR_AXIS":"6925.298","CLASSIFICATION_TYPE":"U","TLE_LINE2":"2 48137  53.0554  28.3738 0001352 105.2453 254.8686 15.06416513 71356","MEAN_MOTION_DOT":"0.00004040","ECCENTRICITY":"0.00013520","RA_OF_ASC_NODE":"28.3738","NORAD_CAT_ID":"48137","OBJECT_ID":"2021-027AX","TIME_SYSTEM":"UTC","BSTAR":"0.00028982000000","RCS_SIZE":"LARGE"},{"REF_FRAME":"TEME","MEAN_MOTION_DDOT":"0.0000000000000","MEAN_ANOMALY":"285.8248","COUNTRY_CODE":"US","ARG_OF_PERICENTER":"74.2918","SITE":"AFETR","PERIOD":"95.590","LAUNCH_DATE":"2021-04-07","TLE_LINE2":"2 48138  53.0551  48.5854 0001604  74.2918 285.8248 15.06427052 71075","CLASSIFICATION_TYPE":"U","SEMIMAJOR_AXIS":"6925.266","ECCENTRICITY":"0.00016040","MEAN_MOTION_DOT":"0.00009147","RA_OF_ASC_NODE":"48.5854","OBJECT_ID":"2021-027AY","NORAD_CAT_ID":"48138","TIME_SYSTEM":"UTC","BSTAR":"0.00063169000000","RCS_SIZE":"LARGE","GP_ID":"207997957","REV_AT_EPOCH":"7107","DECAY_DATE":null,"APOAPSIS":"548.241","CENTER_NAME":"EARTH","INCLINATION":"53.0551","ELEMENT_SET_NO":"999","MEAN_MOTION":"15.06427052","PERIAPSIS":"546.020","TLE_LINE1":"1 48138U 21027AY  22193.82056537  .00009147  00000-0  63169-3 0  9998","EPHEMERIS_TYPE":"0","OBJECT_TYPE":"PAYLOAD","EPOCH":"2022-07-12T19:41:36.847968","OBJECT_NAME":"STARLINK-2481","FILE":"3512432","MEAN_ELEMENT_THEORY":"SGP4"}];
